start=new Date('2022-06-12T00:00:00.000Z').valueOf();
sats=[{"MEAN_MOTION_DDOT":"0.0000000000000","APOAPSIS":"524.714","DECAY_DATE":null,"MEAN_MOTION":"15.14495700","EPHEMERIS_TYPE":"0","MEAN_ELEMENT_THEORY":"SGP4","FILE":"3492149","PERIAPSIS":"520.310","SITE":"AFETR","LAUNCH_DATE":"2020-04-22","CLASSIFICATION_TYPE":"U","OBJECT_NAME":"STARLINK-1326","REF_FRAME":"TEME","TIME_SYSTEM":"UTC","ELEMENT_SET_NO":"999","SEMIMAJOR_AXIS":"6900.647","REV_AT_EPOCH":"11961","BSTAR":"0.00108520000000","RCS_SIZE":"LARGE","GP_ID":"205925232","RA_OF_ASC_NODE":"81.7080","CENTER_NAME":"EARTH","OBJECT_TYPE":"PAYLOAD","COUNTRY_CODE":"US","MEAN_MOTION_DOT":"0.00019966","INCLINATION":"52.9997","TLE_LINE1":"1 45575U 20025AW  22162.74120820  .00019966  00000-0  10852-2 0  9991","EPOCH":"2022-06-11T17:47:20.388480","PERIOD":"95.081","OBJECT_ID":"2020-025AW","ARG_OF_PERICENTER":"83.0904","NORAD_CAT_ID":"45575","MEAN_ANOMALY":"277.0451","TLE_LINE2":"2 45575  52.9997  81.7080 0003191  83.0904 277.0451 15.14495700119611","ECCENTRICITY":"0.00031910"},{"TLE_LINE1":"1 45576U 20025AX  22162.78082449  .00058784  00000-0  39643-2 0  9990","EPOCH":"2022-06-11T18:44:23.235936","PERIOD":"95.611","OBJECT_ID":"2020-025AX","ARG_OF_PERICENTER":"69.9667","MEAN_ANOMALY":"290.1699","NORAD_CAT_ID":"45576","ECCENTRICITY":"0.00035050","TLE_LINE2":"2 45576  53.0560  92.8999 0003505  69.9667 290.1699 15.06098848118881","RCS_SIZE":"LARGE","GP_ID":"205895226","RA_OF_ASC_NODE":"92.8999","OBJECT_TYPE":"PAYLOAD","CENTER_NAME":"EARTH","INCLINATION":"53.0560","MEAN_MOTION_DOT":"0.00058784","COUNTRY_CODE":"US","SEMIMAJOR_AXIS":"6926.272","REV_AT_EPOCH":"11888","BSTAR":"0.00396430000000","MEAN_MOTION":"15.06098848","EPHEMERIS_TYPE":"0","MEAN_ELEMENT_THEORY":"SGP4","MEAN_MOTION_DDOT":"0.0000000000000","DECAY_DATE":null,"APOAPSIS":"550.564","PERIAPSIS":"545.709","FILE":"3491734","OBJECT_NAME":"STARLINK-1328","SITE":"AFETR","LAUNCH_DATE":"2020-04-22","CLASSIFICATION_TYPE":"U","REF_FRAME":"TEME","TIME_SYSTEM":"UTC","ELEMENT_SET_NO":"999"},{"CENTER_NAME":"EARTH","OBJECT_TYPE":"PAYLOAD","COUNTRY_CODE":"US","INCLINATION":"53.0562","MEAN_MOTION_DOT":"0.00001238","RCS_SIZE":"LARGE","GP_ID":"205924232","RA_OF_ASC_NODE":"93.9976","PERIOD":"95.592","EPOCH":"2022-06-11T12:54:03.072384","ARG_OF_PERICENTER":"61.4795","OBJECT_ID":"2020-025AY","MEAN_ANOMALY":"298.6420","NORAD_CAT_ID":"45577","TLE_LINE2":"2 45577  53.0562  93.9976 0002246  61.4795 298.6420 15.06399630119442","ECCENTRICITY":"0.00022460","TLE_LINE1":"1 45577U 20025AY  22162.53753556  .00001238  00000-0  10198-3 0  9995","REF_FRAME":"TEME","TIME_SYSTEM":"UTC","ELEMENT_SET_NO":"999","MEAN_MOTION_DDOT":"0.0000000000000","DECAY_DATE":null,"APOAPSIS":"548.770","MEAN_MOTION":"15.06399630","MEAN_ELEMENT_THEORY":"SGP4","EPHEMERIS_TYPE":"0","FILE":"3492149","PERIAPSIS":"545.659","LAUNCH_DATE":"2020-04-22","SITE":"AFETR","OBJECT_NAME":"STARLINK-1330","CLASSIFICATION_TYPE":"U","BSTAR":"0.00010198000000","SEMIMAJOR_AXIS":"6925.350","REV_AT_EPOCH":"11944"},{"RA_OF_ASC_NODE":"94.1288","GP_ID":"205925483","RCS_SIZE":"LARGE","COUNTRY_CODE":"US","INCLINATION":"53.0541","MEAN_MOTION_DOT":"0.00000642","CENTER_NAME":"EARTH","OBJECT_TYPE":"PAYLOAD","TLE_LINE1":"1 45578U 20025AZ  22162.50806029  .00000642  00000-0  62025-4 0  9992","TLE_LINE2":"2 45578  53.0541  94.1288 0001924  67.0055 293.1137 15.06387866119456","ECCENTRICITY":"0.00019240","NORAD_CAT_ID":"45578","MEAN_ANOMALY":"293.1137","OBJECT_ID":"2020-025AZ","ARG_OF_PERICENTER":"67.0055","PERIOD":"95.593","EPOCH":"2022-06-11T12:11:36.409056","OBJECT_NAME":"STARLINK-1331","SITE":"AFETR","LAUNCH_DATE":"2020-04-22","CLASSIFICATION_TYPE":"U","PERIAPSIS":"545.918","FILE":"3492149","APOAPSIS":"548.583","DECAY_DATE":null,"MEAN_MOTION_DDOT":"0.0000000000000","EPHEMERIS_TYPE":"0","MEAN_ELEMENT_THEORY":"SGP4","MEAN_MOTION":"15.06387866","TIME_SYSTEM":"UTC","ELEMENT_SET_NO":"999","REF_FRAME":"TEME","REV_AT_EPOCH":"11945","SEMIMAJOR_AXIS":"6925.386","BSTAR":"0.00006202500000"},{"TIME_SYSTEM":"UTC","ELEMENT_SET_NO":"999","REF_FRAME":"TEME","PERIAPSIS":"553.716","FILE":"3492149","OBJECT_NAME":"STARLINK-1332","SITE":"AFETR","LAUNCH_DATE":"2020-04-22","CLASSIFICATION_TYPE":"U","MEAN_MOTION_DDOT":"0.0000000000000","APOAPSIS":"555.712","DECAY_DATE":null,"MEAN_MOTION":"15.03956025","EPHEMERIS_TYPE":"0","MEAN_ELEMENT_THEORY":"SGP4","BSTAR":"-0.00001041500000","REV_AT_EPOCH":"12006","SEMIMAJOR_AXIS":"6932.849","COUNTRY_CODE":"US","INCLINATION":"53.0556","MEAN_MOTION_DOT":"-0.00000420","OBJECT_TYPE":"PAYLOAD","CENTER_NAME":"EARTH","GP_ID":"205925732","RA_OF_ASC_NODE":"52.4394","RCS_SIZE":"LARGE","NORAD_CAT_ID":"45579","MEAN_ANOMALY":"263.1998","ECCENTRICITY":"0.00014400","TLE_LINE2":"2 45579  53.0556  52.4394 0001440  96.9154 263.1998 15.03956025120069","EPOCH":"2022-06-11T21:48:43.299936","PERIOD":"95.747","ARG_OF_PERICENTER":"96.9154","OBJECT_ID":"2020-025BA","TLE_LINE1":"1 45579U 20025BA  22162.90883449 -.00000420  00000-0 -10415-4 0  9990"},{"RA_OF_ASC_NODE":"102.6075","GP_ID":"205895674","RCS_SIZE":"LARGE","INCLINATION":"53.0548","MEAN_MOTION_DOT":"0.00000240","COUNTRY_CODE":"US","OBJECT_TYPE":"PAYLOAD","CENTER_NAME":"EARTH","TLE_LINE1":"1 45580U 20025BB  22162.84624102  .00000240  00000-0  35014-4 0  9994","ECCENTRICITY":"0.00020860","TLE_LINE2":"2 45580  53.0548 102.6075 0002086  67.1480 292.9729 15.06390163118758","MEAN_ANOMALY":"292.9729","NORAD_CAT_ID":"45580","OBJECT_ID":"2020-025BB","ARG_OF_PERICENTER":"67.1480","PERIOD":"95.593","EPOCH":"2022-06-11T20:18:35.224128","SITE":"AFETR","LAUNCH_DATE":"2020-04-22","CLASSIFICATION_TYPE":"U","OBJECT_NAME":"STARLINK-1333","FILE":"3491737","PERIAPSIS":"545.799","EPHEMERIS_TYPE":"0","MEAN_ELEMENT_THEORY":"SGP4","MEAN_MOTION":"15.06390163","DECAY_DATE":null,"APOAPSIS":"548.688","MEAN_MOTION_DDOT":"0.0000000000000","TIME_SYSTEM":"UTC","ELEMENT_SET_NO":"999","REF_FRAME":"TEME","REV_AT_EPOCH":"11875","SEMIMAJOR_AXIS":"6925.379","BSTAR":"0.00003501400000"},{"GP_ID":"205924732","RA_OF_ASC_NODE":"94.0815","RCS_SIZE":"LARGE","MEAN_MOTION_DOT":"0.00000579","INCLINATION":"53.0552","COUNTRY_CODE":"US","OBJECT_TYPE":"PAYLOAD","CENTER_NAME":"EARTH","TLE_LINE1":"1 45581U 20025BC  22162.51910862  .00000579  00000-0  57787-4 0  9996","NORAD_CAT_ID":"45581","MEAN_ANOMALY":"290.1563","TLE_LINE2":"2 45581  53.0552  94.0815 0001970  69.9638 290.1563 15.06397512119444","ECCENTRICITY":"0.00019700","PERIOD":"95.592","EPOCH":"2022-06-11T12:27:30.984768","ARG_OF_PERICENTER":"69.9638","OBJECT_ID":"2020-025BC","FILE":"3492149","PERIAPSIS":"545.857","SITE":"AFETR","LAUNCH_DATE":"2020-04-22","CLASSIFICATION_TYPE":"U","OBJECT_NAME":"STARLINK-1335","MEAN_MOTION":"15.06397512","EPHEMERIS_TYPE":"0","MEAN_ELEMENT_THEORY":"SGP4","MEAN_MOTION_DDOT":"0.0000000000000","APOAPSIS":"548.585","DECAY_DATE":null,"ELEMENT_SET_NO":"999","TIME_SYSTEM":"UTC","REF_FRAME":"TEME","REV_AT_EPOCH":"11944","SEMIMAJOR_AXIS":"6925.356","BSTAR":"0.00005778700000"},{"TIME_SYSTEM":"UTC","ELEMENT_SET_NO":"999","REF_FRAME":"TEME","LAUNCH_DATE":"2020-04-22","SITE":"AFETR","CLASSIFICATION_TYPE":"U","OBJECT_NAME":"STARLINK-1337","PERIAPSIS":"545.962","FILE":"3492149","MEAN_ELEMENT_THEORY":"SGP4","EPHEMERIS_TYPE":"0","MEAN_MOTION":"15.06394551","APOAPSIS":"548.498","DECAY_DATE":null,"MEAN_MOTION_DDOT":"0.0000000000000","BSTAR":"0.00006322200000","REV_AT_EPOCH":"11944","SEMIMAJOR_AXIS":"6925.365","MEAN_MOTION_DOT":"0.00000660","INCLINATION":"53.0559","COUNTRY_CODE":"US","OBJECT_TYPE":"PAYLOAD","CENTER_NAME":"EARTH","RA_OF_ASC_NODE":"93.9868","GP_ID":"205924984","RCS_SIZE":"LARGE","TLE_LINE2":"2 45582  53.0559  93.9868 0001831  54.1993 305.9166 15.06394551119448","ECCENTRICITY":"0.00018310","MEAN_ANOMALY":"305.9166","NORAD_CAT_ID":"45582","ARG_OF_PERICENTER":"54.1993","OBJECT_ID":"2020-025BD","PERIOD":"95.592","EPOCH":"2022-06-11T12:59:21.914304","TLE_LINE1":"1 45582U 20025BD  22162.54122586  .00000660  00000-0  63222-4 0  9990"},{"NORAD_CAT_ID":"45583","MEAN_ANOMALY":"295.0230","ECCENTRICITY":"0.00023620","TLE_LINE2":"2 45583  53.0566  94.0586 0002362  65.1004 295.0230 15.06396462118848","PERIOD":"95.592","EPOCH":"2022-06-11T12:32:49.125984","OBJECT_ID":"2020-025BE","ARG_OF_PERICENTER":"65.1004","TLE_LINE1":"1 45583U 20025BE  22162.52279081  .00003375  00000-0  24538-3 0  9994","INCLINATION":"53.0566","MEAN_MOTION_DOT":"0.00003375","COUNTRY_CODE":"US","OBJECT_TYPE":"PAYLOAD","CENTER_NAME":"EARTH","GP_ID":"205883497","RA_OF_ASC_NODE":"94.0586","RCS_SIZE":"LARGE","BSTAR":"0.00024538000000","REV_AT_EPOCH":"11884","SEMIMAJOR_AXIS":"6925.359","TIME_SYSTEM":"UTC","ELEMENT_SET_NO":"999","REF_FRAME":"TEME","FILE":"3491202","PERIAPSIS":"545.589","SITE":"AFETR","OBJECT_NAME":"STARLINK-1340","LAUNCH_DATE":"2020-04-22","CLASSIFICATION_TYPE":"U","MEAN_MOTION":"15.06396462","MEAN_ELEMENT_THEORY":"SGP4","EPHEMERIS_TYPE":"0","MEAN_MOTION_DDOT":"0.0000000000000","APOAPSIS":"548.860","DECAY_DATE":null},{"GP_ID":"205923983","RA_OF_ASC_NODE":"94.1184","RCS_SIZE":"LARGE","COUNTRY_CODE":"US","INCLINATION":"53.0573","MEAN_MOTION_DOT":"0.00000745","CENTER_NAME":"EARTH","OBJECT_TYPE":"PAYLOAD","TLE_LINE1":"1 45584U 20025BF  22162.51079505  .00000745  00000-0  68942-4 0  9999","MEAN_ANOMALY":"296.0637","NORAD_CAT_ID":"45584","ECCENTRICITY":"0.00017250","TLE_LINE2":"2 45584  53.0573  94.1184 0001725  64.0529 296.0637 15.06387392119445","PERIOD":"95.593","EPOCH":"2022-06-11T12:15:32.692320","ARG_OF_PERICENTER":"64.0529","OBJECT_ID":"2020-025BF","PERIAPSIS":"546.058","FILE":"3492149","OBJECT_NAME":"STARLINK-1343","SITE":"AFETR","LAUNCH_DATE":"2020-04-22","CLASSIFICATION_TYPE":"U","MEAN_MOTION_DDOT":"0.0000000000000","APOAPSIS":"548.447","DECAY_DATE":null,"MEAN_MOTION":"15.06387392","MEAN_ELEMENT_THEORY":"SGP4","EPHEMERIS_TYPE":"0","TIME_SYSTEM":"UTC","ELEMENT_SET_NO":"999","REF_FRAME":"TEME","REV_AT_EPOCH":"11944","SEMIMAJOR_AXIS":"6925.387","BSTAR":"0.00006894200000"}];
